GSAT0101 (PRN E11)      
1 37846U 11060A   21253.44968747 -.00000063  00000-0  00000-0 0  9998
2 37846  56.8823  28.9632 0001627  62.6931 297.3230  1.70475029 61441
GSAT0102 (PRN E12)      
1 37847U 11060B   21253.37037644 -.00000063  00000-0  00000-0 0  9994
2 37847  56.8826  28.9649 0001370 332.0902  25.6094  1.70475283 61442
GSAT0103 (PRN E19)      
1 38857U 12055A   21254.07732052  .00000011  00000-0  00000-0 0  9996
2 38857  55.0616 149.3836 0002547 267.6366  92.4097  1.70473705 55346
GSAT0104 (PRN E20)      
1 38858U 12055B   21254.04790329  .00000011  00000-0  00000-0 0  9995
2 38858  55.0611 149.3857 0000152 289.6683  70.4057  1.70474045 55341
GSAT0201 (PRN E18)      
1 40128U 14050A   21254.54628581 -.00000090  00000-0  00000-0 0  9998
2 40128  50.4372 343.3954 1642525 114.3817 263.6142  1.85518847 46044
GSAT0202 (PRN E14)      
1 40129U 14050B   21254.26932320 -.00000088  00000-0  00000-0 0  9994
2 40129  50.4668 342.4588 1639684 115.1804 262.6984  1.85519513 48207
GSAT0203 (PRN E26)      
1 40544U 15017A   21253.81808756 -.00000064  00000-0  00000-0 0  9998
2 40544  56.6767  29.0249 0003030 215.4413 144.5387  1.70474837 39531
GSAT0204 (PRN E22)      
1 40545U 15017B   21252.31099005 -.00000061  00000-0  00000-0 0  9999
2 40545  56.6817  29.0772 0003370 197.2150 162.7722  1.70475634  2554
GSAT0205 (PRN E24)      
1 40889U 15045A   21254.42492192  .00000036  00000-0  00000-0 0  9990
2 40889  55.8160 269.6675 0003815 338.7744  21.2390  1.70475097 37355
GSAT0206 (PRN E30)      
1 40890U 15045B   21252.88465914  .00000038  00000-0  00000-0 0  9994
2 40890  55.8153 269.7065 0003010 309.3401  50.6670  1.70475105 37351
GSAT0209 (PRN E09)      
1 41174U 15079A   21253.06031291  .00000016  00000-0  00000-0 0  9991
2 41174  55.0773 149.1127 0003690 326.2781  33.7761  1.70472676 35092
GSAT0208 (PRN E08)      
1 41175U 15079B   21253.27998067  .00000015  00000-0  00000-0 0  9997
2 41175  55.0752 149.1055 0002956 331.0620  28.9992  1.70472700 35517
GSAT0211 (PRN E02)      
1 41549U 16030A   21252.22670771  .00000041  00000-0  00000-0 0  9992
2 41549  55.9591 269.6279 0004840 298.0176  61.9708  1.70474867 32975
GSAT0210 (PRN E01)      
1 41550U 16030B   21254.27918486  .00000037  00000-0  00000-0 0  9994
2 41550  55.9586 269.5727 0004933 273.7108  86.2620  1.70474832 33006
GSAT0207 (PRN E07)      
1 41859U 16069A   21253.93945737  .00000012  00000-0  00000-0 0  9992
2 41859  54.7364 149.3394 0003434 309.7300  50.3156  1.70472612 29738
GSAT0212 (PRN E03)      
1 41860U 16069B   21253.79288043  .00000012  00000-0  00000-0 0  9998
2 41860  54.7343 149.3411 0002844 344.7387  15.3289  1.70472660 29983
GSAT0213 (PRN E04)      
1 41861U 16069C   21252.98528117  .00000016  00000-0  00000-0 0  9992
2 41861  54.7364 149.3683 0002731 280.7607  79.2856  1.70472831 29830
GSAT0214 (PRN E05)      
1 41862U 16069D   21252.54577623  .00000016  00000-0  00000+0 0  9990
2 41862  54.7338 149.3754 0001995 292.2001  67.8554  1.70472718 29953
GSAT0215 (PRN E21)      
1 43055U 17079A   21253.62266318  .00000037  00000-0  00000-0 0  9998
2 43055  55.9348 269.4260 0004355 268.9413  91.0392  1.70474004 23312
GSAT0216 (PRN E25)      
1 43056U 17079B   21253.91509432  .00000037  00000-0  00000-0 0  9998
2 43056  55.9350 269.4177 0006122 272.1681  87.7914  1.70474115 23338
GSAT0217 (PRN E27)      
1 43057U 17079C   21254.13524970  .00000037  00000-0  00000-0 0  9998
2 43057  55.9323 269.4118 0005588 281.5510  78.4154  1.70474103 23323
GSAT0218 (PRN E31)      
1 43058U 17079D   21253.76868866  .00000037  00000-0  00000-0 0  9992
2 43058  55.9337 269.4192 0006587 269.4409  90.5135  1.70474049 23348
GSAT0221 (PRN E15)      
1 43564U 18060A   21254.25393864 -.00000065  00000-0  00000-0 0  9993
2 43564  57.0602  28.7570 0002745 245.2402 114.7318  1.70475906 19509
GSAT0222 (PRN E33)      
1 43565U 18060B   21254.47378017 -.00000065  00000-0  00000-0 0  9991
2 43565  57.0631  28.7509 0002135 253.5311 106.4461  1.70475928 19554
GSAT0219 (PRN E36)      
1 43566U 18060C   21253.52118777 -.00000063  00000-0  00000-0 0  9990
2 43566  57.0634  28.7788 0001804 249.5206 110.4597  1.70475907 19515
GSAT0220 (PRN E13)      
1 43567U 18060D   21251.98132640 -.00000060  00000-0  00000-0 0  9991
2 43567  57.0632  28.8214 0002112 243.9358 116.0406  1.70475629 19475
